IRIDIUM 136             
1 42962U 17061H   24096.77605020  .00000222  00000+0  72177-4 0  9999
2 42962  86.4027   0.5838 0002281  92.7680 267.3776 14.34218568339826
